UNKNOWN                 
1 81317U          26005.08762291  .00000169  00000+0  38844-3 0  9993
2 81317  67.1369 125.2217 0211226  17.6258 167.1203 13.38023899591750
UNKNOWN                 
1 81323U          26004.58863471  .00027214  00000+0  34438-2 0  9990
2 81323  65.7522 324.9278 0342985 301.3657  55.4300 14.48054815116361
UNKNOWN                 
1 81329U          26008.24006495  .00001854  00000+0  68588-3 0  9994
2 81329  65.8211  69.5655 0832760  17.9206 344.9404 13.22224478581585
UNKNOWN                 
1 81343U          26007.78635922  .00005532  00000+0  39551-3 0  9996
2 81343  85.8734 185.4332 0009358 156.3450 203.8215 15.04230393458234
UNKNOWN                 
1 81359U          26004.38277393  .00001184  00000+0  11703-2 0  9997
2 81359  66.7994 357.7983 0119500 308.6264  50.4157 13.78878804608602
UNKNOWN                 
1 81366U          26008.25608205  .00001104  00000+0  42086-3 0  9996
2 81366  65.8844   9.2610 0710241  68.7013 298.8326 13.45190798 69526
UNKNOWN                 
1 81371U          25349.02062434  .00002320  00000+0  37982-3 0  9992
2 81371  98.8144  85.6265 0070126 358.1968   1.8972 14.70293799642172
UNKNOWN                 
1 81386U          25357.21895263  .00006029  00000+0  19923-2 0  9996
2 81386  71.0480 333.8064 0083954  67.7151 293.2858 14.36355118625749
UNKNOWN                 
1 81390U          26005.94518511 -.00000068  00000+0 -13782-3 0  9997
2 81390 103.1072 261.2745 0167515 100.8582 261.1375 12.35628586503080
UNKNOWN                 
1 81392U          26004.74731547  .00004505  00000+0  42199-2 0  9993
2 81392 100.4003   0.2916 0042858 333.4785 209.0885 13.81863894605353
UNKNOWN                 
1 81405U          26003.38107143  .00002710  00000+0  20508-2 0  9992
2 81405  99.4680  56.9006 0161190 166.1515 194.4141 13.88959115564802
UNKNOWN                 
1 81406U          25354.93559605  .00000948  00000+0  39727-3 0  9991
2 81406  65.8190 136.2966 0869929 316.2525  37.2633 13.12175268534754
