CCSDS_OMM_VERS = 2.0
CREATION_DATE  = 
ORIGINATOR     = 

OBJECT_NAME    = UNKNOWN
OBJECT_ID      = 
CENTER_NAME    = EARTH
REF_FRAME      = TEME
TIME_SYSTEM    = UTC
MEAN_ELEMENT_THEORY = SGP/SGP4

EPOCH          = 2026-01-05T02:06:10.619424
MEAN_MOTION    = 13.38023899
ECCENTRICITY   = .0211226
INCLINATION    = 67.1369
RA_OF_ASC_NODE = 125.2217
ARG_OF_PERICENTER = 17.6258
MEAN_ANOMALY   = 167.1203

EPHEMERIS_TYPE = 0
CLASSIFICATION_TYPE = U
NORAD_CAT_ID   = 81317
ELEMENT_SET_NO = 999
REV_AT_EPOCH   = 59175
BSTAR          = .38844E-3
MEAN_MOTION_DOT = .169E-5
MEAN_MOTION_DDOT = 0

CCSDS_OMM_VERS = 2.0
CREATION_DATE  = 
ORIGINATOR     = 

OBJECT_NAME    = UNKNOWN
OBJECT_ID      = 
CENTER_NAME    = EARTH
REF_FRAME      = TEME
TIME_SYSTEM    = UTC
MEAN_ELEMENT_THEORY = SGP/SGP4

EPOCH          = 2026-01-04T14:07:38.038944
MEAN_MOTION    = 14.48054815
ECCENTRICITY   = .0342985
INCLINATION    = 65.7522
RA_OF_ASC_NODE = 324.9278
ARG_OF_PERICENTER = 301.3657
MEAN_ANOMALY   = 55.4300

EPHEMERIS_TYPE = 0
CLASSIFICATION_TYPE = U
NORAD_CAT_ID   = 81323
ELEMENT_SET_NO = 999
REV_AT_EPOCH   = 11636
BSTAR          = .34438E-2
MEAN_MOTION_DOT = .27214E-3
MEAN_MOTION_DDOT = 0

CCSDS_OMM_VERS = 2.0
CREATION_DATE  = 
ORIGINATOR     = 

OBJECT_NAME    = UNKNOWN
OBJECT_ID      = 
CENTER_NAME    = EARTH
REF_FRAME      = TEME
TIME_SYSTEM    = UTC
MEAN_ELEMENT_THEORY = SGP/SGP4

EPOCH          = 2026-01-08T05:45:41.611680
MEAN_MOTION    = 13.22224478
ECCENTRICITY   = .083276
INCLINATION    = 65.8211
RA_OF_ASC_NODE = 69.5655
ARG_OF_PERICENTER = 17.9206
MEAN_ANOMALY   = 344.9404

EPHEMERIS_TYPE = 0
CLASSIFICATION_TYPE = U
NORAD_CAT_ID   = 81329
ELEMENT_SET_NO = 999
REV_AT_EPOCH   = 58158
BSTAR          = .68588E-3
MEAN_MOTION_DOT = .1854E-4
MEAN_MOTION_DDOT = 0

CCSDS_OMM_VERS = 2.0
CREATION_DATE  = 
ORIGINATOR     = 

OBJECT_NAME    = UNKNOWN
OBJECT_ID      = 
CENTER_NAME    = EARTH
REF_FRAME      = TEME
TIME_SYSTEM    = UTC
MEAN_ELEMENT_THEORY = SGP/SGP4

EPOCH          = 2026-01-07T18:52:21.436608
MEAN_MOTION    = 15.04230393
ECCENTRICITY   = .0009358
INCLINATION    = 85.8734
RA_OF_ASC_NODE = 185.4332
ARG_OF_PERICENTER = 156.3450
MEAN_ANOMALY   = 203.8215

EPHEMERIS_TYPE = 0
CLASSIFICATION_TYPE = U
NORAD_CAT_ID   = 81343
ELEMENT_SET_NO = 999
REV_AT_EPOCH   = 45823
BSTAR          = .39551E-3
MEAN_MOTION_DOT = .5532E-4
MEAN_MOTION_DDOT = 0

CCSDS_OMM_VERS = 2.0
CREATION_DATE  = 
ORIGINATOR     = 

OBJECT_NAME    = UNKNOWN
OBJECT_ID      = 
CENTER_NAME    = EARTH
REF_FRAME      = TEME
TIME_SYSTEM    = UTC
MEAN_ELEMENT_THEORY = SGP/SGP4

EPOCH          = 2026-01-04T09:11:11.667552
MEAN_MOTION    = 13.78878804
ECCENTRICITY   = .01195
INCLINATION    = 66.7994
RA_OF_ASC_NODE = 357.7983
ARG_OF_PERICENTER = 308.6264
MEAN_ANOMALY   = 50.4157

EPHEMERIS_TYPE = 0
CLASSIFICATION_TYPE = U
NORAD_CAT_ID   = 81359
ELEMENT_SET_NO = 999
REV_AT_EPOCH   = 60860
BSTAR          = .11703E-2
MEAN_MOTION_DOT = .1184E-4
MEAN_MOTION_DDOT = 0

CCSDS_OMM_VERS = 2.0
CREATION_DATE  = 
ORIGINATOR     = 

OBJECT_NAME    = UNKNOWN
OBJECT_ID      = 
CENTER_NAME    = EARTH
REF_FRAME      = TEME
TIME_SYSTEM    = UTC
MEAN_ELEMENT_THEORY = SGP/SGP4

EPOCH          = 2026-01-08T06:08:45.489120
MEAN_MOTION    = 13.45190798
ECCENTRICITY   = .0710241
INCLINATION    = 65.8844
RA_OF_ASC_NODE = 9.2610
ARG_OF_PERICENTER = 68.7013
MEAN_ANOMALY   = 298.8326

EPHEMERIS_TYPE = 0
CLASSIFICATION_TYPE = U
NORAD_CAT_ID   = 81366
ELEMENT_SET_NO = 999
REV_AT_EPOCH   = 6952
BSTAR          = .42086E-3
MEAN_MOTION_DOT = .1104E-4
MEAN_MOTION_DDOT = 0

CCSDS_OMM_VERS = 2.0
CREATION_DATE  = 
ORIGINATOR     = 

OBJECT_NAME    = UNKNOWN
OBJECT_ID      = 
CENTER_NAME    = EARTH
REF_FRAME      = TEME
TIME_SYSTEM    = UTC
MEAN_ELEMENT_THEORY = SGP/SGP4

EPOCH          = 2025-12-15T00:29:41.942976
MEAN_MOTION    = 14.70293799
ECCENTRICITY   = .0070126
INCLINATION    = 98.8144
RA_OF_ASC_NODE = 85.6265
ARG_OF_PERICENTER = 358.1968
MEAN_ANOMALY   = 1.8972

EPHEMERIS_TYPE = 0
CLASSIFICATION_TYPE = U
NORAD_CAT_ID   = 81371
ELEMENT_SET_NO = 999
REV_AT_EPOCH   = 64217
BSTAR          = .37982E-3
MEAN_MOTION_DOT = .232E-4
MEAN_MOTION_DDOT = 0

CCSDS_OMM_VERS = 2.0
CREATION_DATE  = 
ORIGINATOR     = 

OBJECT_NAME    = UNKNOWN
OBJECT_ID      = 
CENTER_NAME    = EARTH
REF_FRAME      = TEME
TIME_SYSTEM    = UTC
MEAN_ELEMENT_THEORY = SGP/SGP4

EPOCH          = 2025-12-23T05:15:17.507232
MEAN_MOTION    = 14.36355118
ECCENTRICITY   = .0083954
INCLINATION    = 71.0480
RA_OF_ASC_NODE = 333.8064
ARG_OF_PERICENTER = 67.7151
MEAN_ANOMALY   = 293.2858

EPHEMERIS_TYPE = 0
CLASSIFICATION_TYPE = U
NORAD_CAT_ID   = 81386
ELEMENT_SET_NO = 999
REV_AT_EPOCH   = 62574
BSTAR          = .19923E-2
MEAN_MOTION_DOT = .6029E-4
MEAN_MOTION_DDOT = 0

CCSDS_OMM_VERS = 2.0
CREATION_DATE  = 
ORIGINATOR     = 

OBJECT_NAME    = UNKNOWN
OBJECT_ID      = 
CENTER_NAME    = EARTH
REF_FRAME      = TEME
TIME_SYSTEM    = UTC
MEAN_ELEMENT_THEORY = SGP/SGP4

EPOCH          = 2026-01-05T22:41:03.993504
MEAN_MOTION    = 12.35628586
ECCENTRICITY   = .0167515
INCLINATION    = 103.1072
RA_OF_ASC_NODE = 261.2745
ARG_OF_PERICENTER = 100.8582
MEAN_ANOMALY   = 261.1375

EPHEMERIS_TYPE = 0
CLASSIFICATION_TYPE = U
NORAD_CAT_ID   = 81390
ELEMENT_SET_NO = 999
REV_AT_EPOCH   = 50308
BSTAR          = -.13782E-3
MEAN_MOTION_DOT = -.68E-6
MEAN_MOTION_DDOT = 0

CCSDS_OMM_VERS = 2.0
CREATION_DATE  = 
ORIGINATOR     = 

OBJECT_NAME    = UNKNOWN
OBJECT_ID      = 
CENTER_NAME    = EARTH
REF_FRAME      = TEME
TIME_SYSTEM    = UTC
MEAN_ELEMENT_THEORY = SGP/SGP4

EPOCH          = 2026-01-04T17:56:08.056608
MEAN_MOTION    = 13.81863894
ECCENTRICITY   = .0042858
INCLINATION    = 100.4003
RA_OF_ASC_NODE = 0.2916
ARG_OF_PERICENTER = 333.4785
MEAN_ANOMALY   = 209.0885

EPHEMERIS_TYPE = 0
CLASSIFICATION_TYPE = U
NORAD_CAT_ID   = 81392
ELEMENT_SET_NO = 999
REV_AT_EPOCH   = 60535
BSTAR          = .42199E-2
MEAN_MOTION_DOT = .4505E-4
MEAN_MOTION_DDOT = 0

CCSDS_OMM_VERS = 2.0
CREATION_DATE  = 
ORIGINATOR     = 

OBJECT_NAME    = UNKNOWN
OBJECT_ID      = 
CENTER_NAME    = EARTH
REF_FRAME      = TEME
TIME_SYSTEM    = UTC
MEAN_ELEMENT_THEORY = SGP/SGP4

EPOCH          = 2026-01-03T09:08:44.571552
MEAN_MOTION    = 13.88959115
ECCENTRICITY   = .016119
INCLINATION    = 99.4680
RA_OF_ASC_NODE = 56.9006
ARG_OF_PERICENTER = 166.1515
MEAN_ANOMALY   = 194.4141

EPHEMERIS_TYPE = 0
CLASSIFICATION_TYPE = U
NORAD_CAT_ID   = 81405
ELEMENT_SET_NO = 999
REV_AT_EPOCH   = 56480
BSTAR          = .20508E-2
MEAN_MOTION_DOT = .271E-4
MEAN_MOTION_DDOT = 0

CCSDS_OMM_VERS = 2.0
CREATION_DATE  = 
ORIGINATOR     = 

OBJECT_NAME    = UNKNOWN
OBJECT_ID      = 
CENTER_NAME    = EARTH
REF_FRAME      = TEME
TIME_SYSTEM    = UTC
MEAN_ELEMENT_THEORY = SGP/SGP4

EPOCH          = 2025-12-20T22:27:15.498720
MEAN_MOTION    = 13.12175268
ECCENTRICITY   = .0869929
INCLINATION    = 65.8190
RA_OF_ASC_NODE = 136.2966
ARG_OF_PERICENTER = 316.2525
MEAN_ANOMALY   = 37.2633

EPHEMERIS_TYPE = 0
CLASSIFICATION_TYPE = U
NORAD_CAT_ID   = 81406
ELEMENT_SET_NO = 999
REV_AT_EPOCH   = 53475
BSTAR          = .39727E-3
MEAN_MOTION_DOT = .948E-5
MEAN_MOTION_DDOT = 0

